ORBCOMM FM24            
1 25478U 98053D   25025.86824960  .00002597  00000+0  90737-3 0  9999
2 25478  45.0055 223.5927 0001956 205.1378 154.9375 14.37426730376966
ORBCOMM FM25            
1 25479U 98053E   25026.53236364  .00002451  00000+0  85910-3 0  9996
2 25479  45.0045 218.7026 0004000 239.8510 120.1942 14.37418681377352
ORBCOMM FM26            
1 25480U 98053F   25026.52469854  .00001905  00000+0  68963-3 0  9991
2 25480  45.0044 214.2229 0005534 265.8337  94.1878 14.36576966377277
ORBCOMM FM27            
1 25481U 98053G   25026.52187828  .00002484  00000+0  87013-3 0  9990
2 25481  45.0028 218.9953 0000975 164.9389 195.1488 14.37426483377284
ORBCOMM FM28            
1 25482U 98053H   25026.58161778  .00002498  00000+0  86975-3 0  9994
2 25482  45.0039 156.4537 0004339 282.3971  77.6391 14.37694588377977
ORBCOMM FM30            
1 25980U 99065A   25026.04363818  .00002167  00000+0  77583-3 0  9999
2 25980  45.0317  42.2713 0006580 355.5876   4.4913 14.36731669314008
ORBCOMM FM31            
1 25981U 99065B   25026.36003101  .00002495  00000+0  88655-3 0  9997
2 25981  45.0233  34.3154 0003368   6.4375 353.6516 14.36705450313606
ORBCOMM FM32            
1 25982U 99065C   25026.24210146  .00002678  00000+0  96643-3 0  9993
2 25982  45.0156  50.4912 0004908  16.5557 343.5450 14.35738975314194
