<?xml version="1.0" encoding="UTF-8"?>
<ndm xmlns:xsi="http://www.w3.org/2001/XMLSchema-instance" xsi:noNamespaceSchemaLocation="https://sanaregistry.org/r/ndmxml_unqualified/ndmxml-2.0.0-master-2.0.xsd">
<omm id="CCSDS_OMM_VERS" version="2.0">
<header><CREATION_DATE/><ORIGINATOR/></header><body><segment><metadata><OBJECT_NAME>ORBCOMM FM24</OBJECT_NAME><OBJECT_ID>1998-053D</OBJECT_ID><CENTER_NAME>EARTH</CENTER_NAME><REF_FRAME>TEME</REF_FRAME><TIME_SYSTEM>UTC</TIME_SYSTEM><MEAN_ELEMENT_THEORY>SGP4</MEAN_ELEMENT_THEORY></metadata><data><meanElements><EPOCH>2025-01-25T20:50:16.765440</EPOCH><MEAN_MOTION>14.37426730</MEAN_MOTION><ECCENTRICITY>.0001956</ECCENTRICITY><INCLINATION>45.0055</INCLINATION><RA_OF_ASC_NODE>223.5927</RA_OF_ASC_NODE><ARG_OF_PERICENTER>205.1378</ARG_OF_PERICENTER><MEAN_ANOMALY>154.9375</MEAN_ANOMALY></meanElements><tleParameters><EPHEMERIS_TYPE>0</EPHEMERIS_TYPE><CLASSIFICATION_TYPE>U</CLASSIFICATION_TYPE><NORAD_CAT_ID>25478</NORAD_CAT_ID><ELEMENT_SET_NO>999</ELEMENT_SET_NO><REV_AT_EPOCH>37696</REV_AT_EPOCH><BSTAR>.90737E-3</BSTAR><MEAN_MOTION_DOT>.2597E-4</MEAN_MOTION_DOT><MEAN_MOTION_DDOT>0</MEAN_MOTION_DDOT></tleParameters></data></segment></body></omm>
<omm id="CCSDS_OMM_VERS" version="2.0">
<header><CREATION_DATE/><ORIGINATOR/></header><body><segment><metadata><OBJECT_NAME>ORBCOMM FM25</OBJECT_NAME><OBJECT_ID>1998-053E</OBJECT_ID><CENTER_NAME>EARTH</CENTER_NAME><REF_FRAME>TEME</REF_FRAME><TIME_SYSTEM>UTC</TIME_SYSTEM><MEAN_ELEMENT_THEORY>SGP4</MEAN_ELEMENT_THEORY></metadata><data><meanElements><EPOCH>2025-01-26T12:46:36.218496</EPOCH><MEAN_MOTION>14.37418681</MEAN_MOTION><ECCENTRICITY>.0004</ECCENTRICITY><INCLINATION>45.0045</INCLINATION><RA_OF_ASC_NODE>218.7026</RA_OF_ASC_NODE><ARG_OF_PERICENTER>239.8510</ARG_OF_PERICENTER><MEAN_ANOMALY>120.1942</MEAN_ANOMALY></meanElements><tleParameters><EPHEMERIS_TYPE>0</EPHEMERIS_TYPE><CLASSIFICATION_TYPE>U</CLASSIFICATION_TYPE><NORAD_CAT_ID>25479</NORAD_CAT_ID><ELEMENT_SET_NO>999</ELEMENT_SET_NO><REV_AT_EPOCH>37735</REV_AT_EPOCH><BSTAR>.8591E-3</BSTAR><MEAN_MOTION_DOT>.2451E-4</MEAN_MOTION_DOT><MEAN_MOTION_DDOT>0</MEAN_MOTION_DDOT></tleParameters></data></segment></body></omm>
<omm id="CCSDS_OMM_VERS" version="2.0">
<header><CREATION_DATE/><ORIGINATOR/></header><body><segment><metadata><OBJECT_NAME>ORBCOMM FM26</OBJECT_NAME><OBJECT_ID>1998-053F</OBJECT_ID><CENTER_NAME>EARTH</CENTER_NAME><REF_FRAME>TEME</REF_FRAME><TIME_SYSTEM>UTC</TIME_SYSTEM><MEAN_ELEMENT_THEORY>SGP4</MEAN_ELEMENT_THEORY></metadata><data><meanElements><EPOCH>2025-01-26T12:35:33.953856</EPOCH><MEAN_MOTION>14.36576966</MEAN_MOTION><ECCENTRICITY>.0005534</ECCENTRICITY><INCLINATION>45.0044</INCLINATION><RA_OF_ASC_NODE>214.2229</RA_OF_ASC_NODE><ARG_OF_PERICENTER>265.8337</ARG_OF_PERICENTER><MEAN_ANOMALY>94.1878</MEAN_ANOMALY></meanElements><tleParameters><EPHEMERIS_TYPE>0</EPHEMERIS_TYPE><CLASSIFICATION_TYPE>U</CLASSIFICATION_TYPE><NORAD_CAT_ID>25480</NORAD_CAT_ID><ELEMENT_SET_NO>999</ELEMENT_SET_NO><REV_AT_EPOCH>37727</REV_AT_EPOCH><BSTAR>.68963E-3</BSTAR><MEAN_MOTION_DOT>.1905E-4</MEAN_MOTION_DOT><MEAN_MOTION_DDOT>0</MEAN_MOTION_DDOT></tleParameters></data></segment></body></omm>
<omm id="CCSDS_OMM_VERS" version="2.0">
<header><CREATION_DATE/><ORIGINATOR/></header><body><segment><metadata><OBJECT_NAME>ORBCOMM FM27</OBJECT_NAME><OBJECT_ID>1998-053G</OBJECT_ID><CENTER_NAME>EARTH</CENTER_NAME><REF_FRAME>TEME</REF_FRAME><TIME_SYSTEM>UTC</TIME_SYSTEM><MEAN_ELEMENT_THEORY>SGP4</MEAN_ELEMENT_THEORY></metadata><data><meanElements><EPOCH>2025-01-26T12:31:30.283392</EPOCH><MEAN_MOTION>14.37426483</MEAN_MOTION><ECCENTRICITY>.0000975</ECCENTRICITY><INCLINATION>45.0028</INCLINATION><RA_OF_ASC_NODE>218.9953</RA_OF_ASC_NODE><ARG_OF_PERICENTER>164.9389</ARG_OF_PERICENTER><MEAN_ANOMALY>195.1488</MEAN_ANOMALY></meanElements><tleParameters><EPHEMERIS_TYPE>0</EPHEMERIS_TYPE><CLASSIFICATION_TYPE>U</CLASSIFICATION_TYPE><NORAD_CAT_ID>25481</NORAD_CAT_ID><ELEMENT_SET_NO>999</ELEMENT_SET_NO><REV_AT_EPOCH>37728</REV_AT_EPOCH><BSTAR>.87013E-3</BSTAR><MEAN_MOTION_DOT>.2484E-4</MEAN_MOTION_DOT><MEAN_MOTION_DDOT>0</MEAN_MOTION_DDOT></tleParameters></data></segment></body></omm>
<omm id="CCSDS_OMM_VERS" version="2.0">
<header><CREATION_DATE/><ORIGINATOR/></header><body><segment><metadata><OBJECT_NAME>ORBCOMM FM28</OBJECT_NAME><OBJECT_ID>1998-053H</OBJECT_ID><CENTER_NAME>EARTH</CENTER_NAME><REF_FRAME>TEME</REF_FRAME><TIME_SYSTEM>UTC</TIME_SYSTEM><MEAN_ELEMENT_THEORY>SGP4</MEAN_ELEMENT_THEORY></metadata><data><meanElements><EPOCH>2025-01-26T13:57:31.776192</EPOCH><MEAN_MOTION>14.37694588</MEAN_MOTION><ECCENTRICITY>.0004339</ECCENTRICITY><INCLINATION>45.0039</INCLINATION><RA_OF_ASC_NODE>156.4537</RA_OF_ASC_NODE><ARG_OF_PERICENTER>282.3971</ARG_OF_PERICENTER><MEAN_ANOMALY>77.6391</MEAN_ANOMALY></meanElements><tleParameters><EPHEMERIS_TYPE>0</EPHEMERIS_TYPE><CLASSIFICATION_TYPE>U</CLASSIFICATION_TYPE><NORAD_CAT_ID>25482</NORAD_CAT_ID><ELEMENT_SET_NO>999</ELEMENT_SET_NO><REV_AT_EPOCH>37797</REV_AT_EPOCH><BSTAR>.86975E-3</BSTAR><MEAN_MOTION_DOT>.2498E-4</MEAN_MOTION_DOT><MEAN_MOTION_DDOT>0</MEAN_MOTION_DDOT></tleParameters></data></segment></body></omm>
<omm id="CCSDS_OMM_VERS" version="2.0">
<header><CREATION_DATE/><ORIGINATOR/></header><body><segment><metadata><OBJECT_NAME>ORBCOMM FM30</OBJECT_NAME><OBJECT_ID>1999-065A</OBJECT_ID><CENTER_NAME>EARTH</CENTER_NAME><REF_FRAME>TEME</REF_FRAME><TIME_SYSTEM>UTC</TIME_SYSTEM><MEAN_ELEMENT_THEORY>SGP4</MEAN_ELEMENT_THEORY></metadata><data><meanElements><EPOCH>2025-01-26T01:02:50.338752</EPOCH><MEAN_MOTION>14.36731669</MEAN_MOTION><ECCENTRICITY>.000658</ECCENTRICITY><INCLINATION>45.0317</INCLINATION><RA_OF_ASC_NODE>42.2713</RA_OF_ASC_NODE><ARG_OF_PERICENTER>355.5876</ARG_OF_PERICENTER><MEAN_ANOMALY>4.4913</MEAN_ANOMALY></meanElements><tleParameters><EPHEMERIS_TYPE>0</EPHEMERIS_TYPE><CLASSIFICATION_TYPE>U</CLASSIFICATION_TYPE><NORAD_CAT_ID>25980</NORAD_CAT_ID><ELEMENT_SET_NO>999</ELEMENT_SET_NO><REV_AT_EPOCH>31400</REV_AT_EPOCH><BSTAR>.77583E-3</BSTAR><MEAN_MOTION_DOT>.2167E-4</MEAN_MOTION_DOT><MEAN_MOTION_DDOT>0</MEAN_MOTION_DDOT></tleParameters></data></segment></body></omm>
<omm id="CCSDS_OMM_VERS" version="2.0">
<header><CREATION_DATE/><ORIGINATOR/></header><body><segment><metadata><OBJECT_NAME>ORBCOMM FM31</OBJECT_NAME><OBJECT_ID>1999-065B</OBJECT_ID><CENTER_NAME>EARTH</CENTER_NAME><REF_FRAME>TEME</REF_FRAME><TIME_SYSTEM>UTC</TIME_SYSTEM><MEAN_ELEMENT_THEORY>SGP4</MEAN_ELEMENT_THEORY></metadata><data><meanElements><EPOCH>2025-01-26T08:38:26.679264</EPOCH><MEAN_MOTION>14.36705450</MEAN_MOTION><ECCENTRICITY>.0003368</ECCENTRICITY><INCLINATION>45.0233</INCLINATION><RA_OF_ASC_NODE>34.3154</RA_OF_ASC_NODE><ARG_OF_PERICENTER>6.4375</ARG_OF_PERICENTER><MEAN_ANOMALY>353.6516</MEAN_ANOMALY></meanElements><tleParameters><EPHEMERIS_TYPE>0</EPHEMERIS_TYPE><CLASSIFICATION_TYPE>U</CLASSIFICATION_TYPE><NORAD_CAT_ID>25981</NORAD_CAT_ID><ELEMENT_SET_NO>999</ELEMENT_SET_NO><REV_AT_EPOCH>31360</REV_AT_EPOCH><BSTAR>.88655E-3</BSTAR><MEAN_MOTION_DOT>.2495E-4</MEAN_MOTION_DOT><MEAN_MOTION_DDOT>0</MEAN_MOTION_DDOT></tleParameters></data></segment></body></omm>
<omm id="CCSDS_OMM_VERS" version="2.0">
<header><CREATION_DATE/><ORIGINATOR/></header><body><segment><metadata><OBJECT_NAME>ORBCOMM FM32</OBJECT_NAME><OBJECT_ID>1999-065C</OBJECT_ID><CENTER_NAME>EARTH</CENTER_NAME><REF_FRAME>TEME</REF_FRAME><TIME_SYSTEM>UTC</TIME_SYSTEM><MEAN_ELEMENT_THEORY>SGP4</MEAN_ELEMENT_THEORY></metadata><data><meanElements><EPOCH>2025-01-26T05:48:37.566144</EPOCH><MEAN_MOTION>14.35738975</MEAN_MOTION><ECCENTRICITY>.0004908</ECCENTRICITY><INCLINATION>45.0156</INCLINATION><RA_OF_ASC_NODE>50.4912</RA_OF_ASC_NODE><ARG_OF_PERICENTER>16.5557</ARG_OF_PERICENTER><MEAN_ANOMALY>343.5450</MEAN_ANOMALY></meanElements><tleParameters><EPHEMERIS_TYPE>0</EPHEMERIS_TYPE><CLASSIFICATION_TYPE>U</CLASSIFICATION_TYPE><NORAD_CAT_ID>25982</NORAD_CAT_ID><ELEMENT_SET_NO>999</ELEMENT_SET_NO><REV_AT_EPOCH>31419</REV_AT_EPOCH><BSTAR>.96643E-3</BSTAR><MEAN_MOTION_DOT>.2678E-4</MEAN_MOTION_DOT><MEAN_MOTION_DDOT>0</MEAN_MOTION_DDOT></tleParameters></data></segment></body></omm>

</ndm>
